376P/LONEOS,e,1.1934,314.8316,285.0614,5.857569,0.0695229,0.51796860,31.0076,12/17.0/2020,2000,g 12.5,4.0
# From MPEC 2020-FB5
377P/Scotti,e,9.0227,226.0590,354.9944,6.712039,0.0566790,0.25255467,8.9819,12/17.0/2020,2000,g  9.5,4.0
# From MPEC 2019-TG9
378P/McNaught,e,19.0966,94.5131,194.0488,6.382366,0.0611268,0.47028131,1.0462,11/07.0/2020,2000,g 12.0,4.0
# From MPC115889
379P/Spacewatch,e,12.3861,184.0286,31.2046,3.525354,0.1489018,0.33806502,357.5337,07/16.0/2019,2000,g 15.0,4.0
# From MPEC 2020-KB7
380P/PANSTARRS,e,8.2491,133.0021,90.1037,4.545753,0.1016940,0.32963456,36.5122,05/31.0/2020,2000,g 12.5,4.0
# From MPEC 2021-F20
381P/LINEAR-Spacewatch,e,28.3750,173.7801,173.1377,7.119780,0.0518805,0.68174662,23.1915,12/17.0/2020,2000,g 17.5,2.0
# From MPC115889
382P/Larson,e,8.3106,173.7409,170.9859,6.470840,0.0598774,0.31697328,0.7535,03/02.0/2022,2000,g  8.0,4.0
# From MPC118844
383P/Christensen,e,12.3219,207.8962,133.6262,3.543560,0.1477558,0.59948510,32.1784,05/31.0/2020,2000,g 18.0,4.0
# From MPEC 2020-W26
384P/Kowalski,e,7.2827,354.2263,37.6327,2.901395,0.1994315,0.61542498,86.2647,12/17.0/2020,2000,g 19.5,4.0
# From MPEC 2021-F20
385P/Hill,e,16.8277,357.0658,44.3303,4.288302,0.1109880,0.40135077,50.9653,12/17.0/2020,2000,g 13.0,4.0
# From MPEC 2020-FB5
386P/PANSTARRS,e,15.2295,134.9476,353.2498,4.058026,0.1205680,0.41641500,14.4256,12/17.0/2020,2000,g 14.5,4.0
# From MPEC 2021-F20
387P/Boattini,e,8.9175,259.3300,162.7797,4.799721,0.0937303,0.73600756,43.8491,12/17.0/2020,2000,g 15.0,4.0
# From MPEC 2021-F20
388P/Gibbs,e,23.8631,37.0458,42.3859,5.245769,0.0820333,0.61795645,42.0379,12/17.0/2020,2000,g 13.0,4.0
# From MPEC 2021-F20
389P/Siding Spring,e,160.0653,218.8504,249.2876,5.625966,0.0738598,0.70437627,26.1293,12/17.0/2020,2000,g 16.0,4.0
# From MPEC 2021-F20
390P/Gibbs,e,18.5601,152.2766,232.3470,5.801577,0.0705318,0.70700886,19.0259,12/17.0/2020,2000,g 12.0,4.0
# From MPEC 2021-F20
391P/Kowalski,e,21.2762,124.7301,186.8253,4.677357,0.0974324,0.12078645,97.7274,12/17.0/2020,2000,g  8.0,4.0
# From MPEC 2020-HN5
392P/LINEAR,e,4.9294,24.8864,71.9946,6.149932,0.0646247,0.68288581,3.8877,05/31.0/2020,2000,g 14.5,4.0
# From MPEC 2021-BE3
393P/Spacewatch-Hill,e,16.7935,36.4205,328.1099,4.784964,0.0941643,0.12037254,39.4910,12/17.0/2020,2000,g 11.0,4.0
# From MPEC 2020-KB7
394P/PANSTARRS,e,8.5295,98.1257,54.5225,4.333731,0.1092474,0.36822274,19.9450,05/31.0/2020,2000,g 16.0,2.4
# From MPEC 2021-BE3
395P/Catalina-NEAT,e,3.2762,223.6637,89.8501,6.560168,0.0586586,0.38036768,358.9170,12/12.0/2021,2000,g 10.0,4.0
# From MPEC 2020-KB7
396P/,e,5.4361,136.6590,8.6796,6.826480,0.0552597,0.41652374,15.2428,05/31.0/2020,2000,g 12.0,4.0
# From MPEC 2021-F20
397P/Lemmon,e,10.9284,8.2094,14.4110,3.826378,0.1316808,0.40492110,23.7932,12/17.0/2020,2000,g 12.0,4.0
# From MPEC 2020-FB5
398P/Boattini,e,11.0153,127.4628,320.2369,3.128073,0.1781512,0.58259103,358.2636,12/17.0/2020,2000,g 15.5,4.0
# From MPEC 2021-F20
399P/PANSTARRS,e,13.3119,207.0578,214.4727,3.794341,0.1333520,0.44654989,357.6555,09/26.0/2028,2000,g 15.6,4.0
# From MPEC 2020-FB5
400P/PANSTARRS,e,10.9291,176.3981,238.7836,3.558956,0.1467980,0.40899989,357.7848,01/26.0/2021,2000,g 15.5,2.8
# From MPEC 2021-BE3
401P/McNaught,e,12.8046,359.8905,309.2976,5.771157,0.0710902,0.58014205,26.6872,12/17.0/2020,2000,g 12.5,4.0
# From MPEC 2021-F20
402P/LINEAR,e,30.8515,123.0914,326.7318,7.015299,0.0530438,0.43867291,359.8649,12/12.0/2021,2000,g  8.0,4.0
# From MPEC 2020-FB5
403P/Catalina,e,12.3201,163.8156,277.6720,5.426193,0.0779761,0.50328460,7.1449,12/17.0/2020,2000,g 12.0,4.0
# From MPEC 2020-W26
404P/Bressi,e,9.8281,262.7819,157.9582,4.864331,0.0918691,0.13647872,269.6749,12/17.0/2020,2000,g 10.0,4.0
# From MPEC 2020-FB5
405P/Lemmon,e,9.3648,3.3139,112.2483,3.610290,0.1436782,0.68924770,358.9483,12/17.0/2020,2000,g 17.5,4.0
# From MPEC 2021-F20
406P/Gibbs,e,1.2135,11.4729,352.3604,3.573085,0.1459281,0.54189422,13.4692,12/17.0/2020,2000,g 17.0,4.0
# From MPEC 2021-F20
407P/PANSTARRS-Fuls,e,4.8957,80.8360,92.4020,3.455307,0.1534526,0.38487021,49.1087,12/17.0/2020,2000,g 14.0,4.0
# From MPEC 2021-F20
408P/Novichonok-Gerke,e,19.3569,189.4411,226.4541,4.744200,0.0953805,0.26910347,358.3753,09/18.0/2022,2000,g 11.0,4.0
# From MPEC 2020-FB5
409P/LONEOS-Hill,e,17.1187,143.6710,15.1364,6.050686,0.0662212,0.71010756,359.8562,01/26.0/2021,2000,g 14.0,4.0
# From MPEC 2021-F20
410P/NEAT-LINEAR,e,9.3938,139.9805,313.0948,6.631726,0.0577117,0.51037893,0.6601,07/05.0/2021,2000,g 12.5,4.0
# From MPEC 2020-FB5
411P/Christensen,e,12.3773,77.6739,46.6897,5.818889,0.0702173,0.58089043,0.1064,01/26.0/2021,2000,g 13.5,4.0
# From MPEC 2021-F20
412P/WISE,e,8.9310,0.8488,155.9205,3.110318,0.1796788,0.47994219,2.0881,12/17.0/2020,2000,g 17.0,4.0
# From MPEC 2020-FB5
413P/Larson,e,15.9779,39.0251,186.0391,3.710470,0.1378989,0.42328907,357.9035,07/05.0/2021,2000,g 14.0,4.0
# From MPEC 2021-BE3
414P/STEREO,e,23.3838,257.7904,210.7332,2.795271,0.2108959,0.81168944,0.1296,01/26.0/2021,2000,g 19.0,4.0
# From MPEC 2020-FB5
415P/Tenagra,e,31.7863,160.2956,346.2370,4.115957,0.1180315,0.19485995,2.3554,03/07.0/2021,2000,g 12.0,4.0
# From MPEC 2021-F20
416P/Scotti,e,3.3612,355.8121,134.5283,4.013839,0.1225644,0.45440041,2.3899,03/07.0/2021,2000,g 15.5,4.0
# From MPEC 2020-FB5
417P/NEOWISE,e,8.1310,111.3509,129.4576,3.347753,0.1609067,0.55432578,359.0068,04/16.0/2021,2000,g 16.5,4.0
# From MPEC 2020-FB5
418P/LINEAR,e,5.7975,277.6572,307.1008,5.079553,0.0860926,0.66475529,1.3286,11/02.0/2021,2000,g 13.0,4.0
# From MPEC 2020-FB5
419P/PANSTARRS,e,2.8029,40.3893,187.5017,3.520936,0.1491821,0.27767368,0.8268,11/02.0/2021,2000,g 12.5,4.0
# From MPEC 2021-F20
420P/Hill,e,14.5028,173.9597,157.1429,5.519241,0.0760125,0.49471036,320.3276,12/17.0/2020,2000,g 11.5,4.0
# From MPC107687
1I/`Oumuamua,h,09/09.4886/2017,122.6778,24.5997,241.6845,1.199252,0.255240,2000,23.0,2.0
# From MPEC 2020-K19
2I/Borisov,h,12/08.5549/2019,44.0527,308.1480,209.1251,3.356636,2.006548,2000,11.0,4.0
